IRIDIUM 144             
1 43249U 18030A   25326.08786897  .00000289  00000+0  96179-4 0  9999
2 43249  86.3990  16.9789 0002169  98.7451 261.3991 14.34217895400459
IRIDIUM 149             
1 43250U 18030B   25326.09419189  .00000290  00000+0  96622-4 0  9994
2 43250  86.3991  16.9454 0002124  96.6791 263.4646 14.34214613400473
IRIDIUM 157             
1 43251U 18030C   25325.69462676  .00000243  00000+0  79784-4 0  9997
2 43251  86.3994  17.1613 0002423  93.9241 266.2232 14.34218389400396
IRIDIUM 140             
1 43252U 18030D   25325.64389154  .00000300  00000+0  10014-3 0  9996
2 43252  86.3992  17.1955 0002067  97.4663 262.6768 14.34216611400441
IRIDIUM 145             
1 43253U 18030E   25326.11958329  .00000288  00000+0  95857-4 0  9990
2 43253  86.3990  16.9694 0002137 106.3486 253.7945 14.34217879400443
IRIDIUM 146             
1 43254U 18030F   25325.61216666  .00000237  00000+0  77703-4 0  9990
2 43254  86.3990  17.1943 0002164 100.3760 259.7680 14.34216582400388
IRIDIUM 148             
1 43255U 18030G   25325.65023093  .00000294  00000+0  98066-4 0  9993
2 43255  86.3992  17.2182 0002293  95.7097 264.4361 14.34217390400422
IRIDIUM 142             
1 43256U 18030H   25325.68828683  .00000258  00000+0  85042-4 0  9995
2 43256  86.3990  17.0991 0002204 106.8170 253.3267 14.34217769400393
